HULIANWANG DIGUI-60     
1 65166U 25174C   26073.92176115  .00000091  00000+0  17729-3 0  9991
2 65166  86.4905 283.8611 0001350  97.5665 262.5622 13.24422283 28314
HULIANWANG DIGUI-61     
1 65167U 25174D   26073.92938338  .00000092  00000+0  17923-3 0  9992
2 65167  86.4914 283.8820 0001300  97.8534 262.2748 13.24420903 28313
HULIANWANG DIGUI-62     
1 65168U 25174E   26073.93688157  .00000079  00000+0  14917-3 0  9990
2 65168  86.4855 283.7633 0001333  99.9470 260.1815 13.24422255 28311
HULIANWANG DIGUI-63     
1 65169U 25174F   26073.94441908  .00000069  00000+0  12668-3 0  9993
2 65169  86.4908 283.8751 0001320  97.6103 262.5181 13.24422597 28318
HULIANWANG DIGUI-64     
1 65170U 25174G   26073.95197545  .00000066  00000+0  11933-3 0  9992
2 65170  86.4866 283.7941 0001341  99.6264 260.5022 13.24422602 28315
HULIANWANG DIGUI-65     
1 65171U 25174H   26073.89148812  .00000079  00000+0  14981-3 0  9999
2 65171  86.4829 283.7505 0001347  97.0414 263.0873 13.24423105 28306
HULIANWANG DIGUI-66     
1 65172U 25174J   26073.95950885  .00000071  00000+0  13104-3 0  9996
2 65172  86.4865 283.7969 0001408  97.7911 262.3383 13.24422752 28314
HULIANWANG DIGUI-67     
1 65173U 25174K   26073.89910475  .00000094  00000+0  18375-3 0  9991
2 65173  86.4876 283.8519 0001379  96.5519 263.5772 13.24422372 28275
HULIANWANG DIGUI-68     
1 65228U 25178A   26073.92161386  .00000043  00000+0  66932-4 0  9996
2 65228  86.4958  45.3272 0001996  75.4274 284.7081 13.24424378 27830
HULIANWANG DIGUI-69     
1 65229U 25178B   26073.91441444  .00000034  00000+0  44997-4 0  9999
2 65229  86.4978  45.3665 0001952  77.2186 282.9166 13.24418216 27831
HULIANWANG DIGUI-70     
1 65230U 25178C   26073.90680806  .00000041  00000+0  60966-4 0  9999
2 65230  86.4917  45.2322 0002033  74.9137 285.2222 13.24419320 27832
HULIANWANG DIGUI-71     
1 65231U 25178D   26073.89922245  .00000029  00000+0  32276-4 0  9993
2 65231  86.4976  45.3544 0001993  76.4551 283.6805 13.24420137 27833
HULIANWANG DIGUI-72     
1 65232U 25178E   26073.89162193  .00000034  00000+0  44795-4 0  9997
2 65232  86.4959  45.3134 0002005  77.4302 282.7056 13.24420573 27832
HULIANWANG DIGUI-73     
1 65305U 25187A   26073.86206120 -.00000103  00000+0  45601-4 0  9999
2 65305  50.0046 184.1691 0001005 174.7162 185.3720 13.29343195 27151
HULIANWANG DIGUI-74     
1 65306U 25187B   26073.92051371 -.00000109  00000+0  31926-4 0  9994
2 65306  50.0088 183.8818 0001017 175.9121 184.1760 13.29343583 27169
HULIANWANG DIGUI-75     
1 65307U 25187C   26073.82869685 -.00000101  00000+0  50058-4 0  9998
2 65307  50.0080 184.0525 0001002 173.9999 186.0886 13.29342623 27158
HULIANWANG DIGUI-76     
1 65308U 25187D   26073.81219520 -.00000096  00000+0  61426-4 0  9999
2 65308  50.0004 184.5000 0000984 171.5203 188.5685 13.29340055 27148
HULIANWANG DIGUI-77     
1 65309U 25187E   26073.87886150 -.00000097  00000+0  57206-4 0  9997
2 65309  50.0039 184.2426 0001025 172.2802 187.8086 13.29341935 27152
HULIANWANG DIGUI-78     
1 65310U 25187F   26073.91227162 -.00000108  00000+0  34912-4 0  9998
2 65310  50.0104 183.8660 0000985 175.9110 184.1771 13.29342271 27164
HULIANWANG DIGUI-79     
1 65311U 25187G   26073.82021853 -.00000102  00000+0  46935-4 0  9990
2 65311  50.0034 184.5898 0001004 172.8714 187.2173 13.29343769 27148
HULIANWANG DIGUI-80     
1 65312U 25187H   26073.87047699 -.00000099  00000+0  54823-4 0  9992
2 65312  50.0024 184.1764 0001014 172.0086 188.0803 13.29342008 27156
HULIANWANG DIGUI-81     
1 65313U 25187J   26073.92898824 -.00000102  00000+0  47762-4 0  9992
2 65313  50.0064 183.8869 0001017 173.0861 187.0026 13.29342127 27178
HULIANWANG DIGUI-82     
1 65817U 25220A   26073.95580282  .00000090  00000+0  17602-3 0  9992
2 65817  86.4900  75.6828 0002364  92.8679 267.2726 13.24422598 22442
HULIANWANG DIGUI-83     
1 65818U 25220B   26073.94830346  .00000099  00000+0  19711-3 0  9993
2 65818  86.4922  75.7177 0002353  92.8580 267.2823 13.24421789 22443
HULIANWANG DIGUI-84     
1 65819U 25220C   26073.94071803  .00000086  00000+0  16606-3 0  9995
2 65819  86.4859  75.6054 0002339  92.0863 268.0539 13.24422185 22440
HULIANWANG DIGUI-85     
1 65820U 25220D   26073.93311365  .00000075  00000+0  14028-3 0  9990
2 65820  86.4920  75.7077 0002339  93.1743 266.9659 13.24422712 22442
HULIANWANG DIGUI-86     
1 65821U 25220E   26073.92565500  .00000059  00000+0  10331-3 0  9997
2 65821  86.4899  75.6670 0002336  92.9843 267.1558 13.24421536 22445
HULIANWANG DIGUI-87     
1 65995U 25231A   26073.89028358 -.00000093  00000+0  67436-4 0  9990
2 65995  49.9992 154.0696 0000644 226.5574 133.5245 13.29331080 20346
HULIANWANG DIGUI-88     
1 65996U 25231B   26073.89866562 -.00000086  00000+0  82030-4 0  9997
2 65996  49.9979 154.0985 0000681 231.5978 128.4833 13.29330143 20343
HULIANWANG DIGUI-89     
1 65997U 25231C   26073.73157031 -.00000084  00000+0  85321-4 0  9999
2 65997  49.9956 154.5235 0000685 231.9815 128.0995 13.29330786 20326
HULIANWANG DIGUI-90     
1 65998U 25231D   26073.94875385 -.00000095  00000+0  63588-4 0  9995
2 65998  49.9990 153.7068 0000658 234.3779 125.7032 13.29331017 20353
HULIANWANG DIGUI-91     
1 65999U 25231E   26073.94040385 -.00000097  00000+0  58563-4 0  9999
2 65999  50.0005 153.6886 0000680 232.3978 127.6832 13.29330907 20351
HULIANWANG DIGUI-92     
1 66000U 25231F   26073.93203840 -.00000093  00000+0  67261-4 0  9990
2 66000  50.0046 153.6932 0000681 232.5049 127.5761 13.29331467 20356
HULIANWANG DIGUI-93     
1 66001U 25231G   26073.91537101 -.00000094  00000+0  64760-4 0  9991
2 66001  50.0013 153.5711 0000661 232.5597 127.5215 13.29330494 20354
HULIANWANG DIGUI-94     
1 66002U 25231H   26073.92368550 -.00000094  00000+0  65677-4 0  9991
2 66002  50.0052 153.6617 0000684 232.5803 127.5007 13.29331694 20351
HULIANWANG DIGUI-95     
1 66003U 25231J   26073.90719034 -.00000088  00000+0  77775-4 0  9992
2 66003  50.0025 153.5435 0000661 228.9135 131.1680 13.29326616 20357
HULIANWANG DIGUI-96     
1 66412U 25258A   26073.55473811 -.00000068  00000+0  12005-3 0  9998
2 66412  50.0038 275.0409 0000520 130.3250 229.7667 13.29332360 17149
HULIANWANG DIGUI-97     
1 66413U 25258B   26073.88884428 -.00000070  00000+0  11624-3 0  9994
2 66413  50.0000 274.0981 0000542 131.1782 228.9137 13.29333414 17184
HULIANWANG DIGUI-98     
1 66414U 25258C   26073.88045504 -.00000062  00000+0  13436-3 0  9993
2 66414  50.0038 274.0992 0000595 139.2773 220.8144 13.29335083 17188
HULIANWANG DIGUI-99     
1 66415U 25258D   26073.92226626 -.00000065  00000+0  12759-3 0  9995
2 66415  50.0036 273.6500 0000466 124.3692 235.7225 13.29332457 17186
HULIANWANG DIGUI-100    
1 66416U 25258E   26073.87210361 -.00000066  00000+0  12533-3 0  9990
2 66416  50.0040 274.0582 0000457 124.5340 235.5576 13.29335520 17191
HULIANWANG DIGUI-101    
1 66417U 25258F   26073.86377444 -.00000073  00000+0  10957-3 0  9992
2 66417  49.9989 273.9526 0000475 121.0092 239.0827 13.29333592 17198
HULIANWANG DIGUI-102    
1 66418U 25258G   26073.91384955 -.00000066  00000+0  12418-3 0  9990
2 66418  50.0004 273.5642 0000492 134.3606 225.7307 13.29335498 17194
HULIANWANG DIGUI-103    
1 66419U 25258H   26073.90552351 -.00000064  00000+0  12922-3 0  9995
2 66419  49.9997 273.5125 0000417 122.1383 237.9530 13.29334587 17194
HULIANWANG DIGUI-104    
1 66420U 25258J   26073.89718999 -.00000066  00000+0  12554-3 0  9990
2 66420  50.0014 273.4929 0000523 137.9110 222.1802 13.29333960 17181
HULIANWANG DIGUI-105    
1 66915U 25285A   26073.90110968 -.00000074  00000+0  10837-3 0  9994
2 66915  50.0040 124.3731 0000251 321.5045  38.5809 13.29331621 13511
HULIANWANG DIGUI-106    
1 66916U 25285B   26071.63707196 -.00636320  00000+0 -14356+1 0  9995
2 66916  50.0031 132.4321 0004919  57.5216 302.6131 13.29152637 13216
HULIANWANG DIGUI-107    
1 66917U 25285C   26073.88441060 -.00000074  00000+0  10801-3 0  9994
2 66917  50.0015 124.2668 0000213 323.5755  36.5102 13.29331092 13517
HULIANWANG DIGUI-108    
1 66918U 25285D   26073.87604602 -.00000074  00000+0  10693-3 0  9996
2 66918  50.0037 124.2418 0000202 325.7302  34.3557 13.29331703 13514
HULIANWANG DIGUI-109    
1 66919U 25285E   26073.86769630 -.00000067  00000+0  12274-3 0  9998
2 66919  50.0062 124.2202 0000207 322.4417  37.6441 13.29331579 13520
HULIANWANG DIGUI-110    
1 66920U 25285F   26073.93453203 -.00000075  00000+0  10612-3 0  9997
2 66920  50.0094 123.9351 0000216 319.9665  40.1192 13.29331128 13526
HULIANWANG DIGUI-111    
1 66921U 25285G   26073.92617804 -.00000079  00000+0  97839-4 0  9997
2 66921  50.0110 123.9063 0000206 323.8187  36.2671 13.29331107 13523
HULIANWANG DIGUI-112    
1 66922U 25285H   26073.91781939 -.00000062  00000+0  13286-3 0  9993
2 66922  50.0073 123.8324 0000214 323.7048  36.3809 13.29331778 13523
HULIANWANG DIGUI-113    
1 66923U 25285J   26073.90946566 -.00000076  00000+0  10388-3 0  9997
2 66923  50.0083 123.7971 0000233 322.9170  37.1686 13.29331446 13524
HULIANWANG DIGUI-114    
1 66953U 25287A   26073.85785906  .00000069  00000+0  12745-3 0  9995
2 66953  86.4957 314.2654 0001960  77.6619 282.4734 13.24416547 12850
HULIANWANG DIGUI-115    
1 66954U 25287B   26073.92583415  .00000073  00000+0  13629-3 0  9992
2 66954  86.4973 314.2530 0002023  76.0431 284.0927 13.24416646 12861
HULIANWANG DIGUI-116    
1 66955U 25287C   26073.91828623  .00000081  00000+0  15405-3 0  9998
2 66955  86.4912 314.1865 0002024  76.0910 284.0449 13.24416766 12860
HULIANWANG DIGUI-117    
1 66956U 25287D   26073.91078460  .00000078  00000+0  14801-3 0  9990
2 66956  86.4973 314.2464 0000571  20.3025 339.8132 13.24414897 12869
HULIANWANG DIGUI-118    
1 66957U 25287E   26073.90320438  .00000064  00000+0  11425-3 0  9999
2 66957  86.4948 314.2180 0002006  76.2675 283.8682 13.24416187 12865
